[{"OBJECT_NAME":"STARLINK-34123","OBJECT_ID":"2025-095B","EPOCH":"2026-03-09T14:57:59.247360","MEAN_MOTION":15.27615729,"ECCENTRICITY":0.0002676,"INCLINATION":43.0055,"RA_OF_ASC_NODE":176.9552,"ARG_OF_PERICENTER":309.0664,"MEAN_ANOMALY":50.9949,"EPHEMERIS_TYPE":0,"CLASSIFICATION_TYPE":"U","NORAD_CAT_ID":63891,"ELEMENT_SET_NO":999,"REV_AT_EPOCH":4777,"BSTAR":0.0011051,"MEAN_MOTION_DOT":0.00030308,"MEAN_MOTION_DDOT":0},{"OBJECT_NAME":"CZ-6A DEB","OBJECT_ID":"2022-151ME","EPOCH":"2026-03-09T17:07:50.636064","MEAN_MOTION":15.20556855,"ECCENTRICITY":0.00283971,"INCLINATION":98.6182,"RA_OF_ASC_NODE":149.2426,"ARG_OF_PERICENTER":178.5587,"MEAN_ANOMALY":181.5732,"EPHEMERIS_TYPE":0,"CLASSIFICATION_TYPE":"U","NORAD_CAT_ID":54578,"ELEMENT_SET_NO":999,"REV_AT_EPOCH":10518,"BSTAR":0.0077423675,"MEAN_MOTION_DOT":0.00175116,"MEAN_MOTION_DDOT":0}]
